     2.10           G: GLONASS NAV DATA                     RINEX VERSION / TYPE
teqc  2015Jun23                         20220413 01:25:42UTCPGM / RUN BY / DATE
Linux 2.4.21-27.ELsmp|Opteron|gcc -static|Linux x86_64|=+   COMMENT
  2022     4     2   -4.656612873077D-10                    CORR TO SYSTEM TIME
                                                            END OF HEADER
 3 22  4  3 11 15  0.0 5.425140261650D-05 0.000000000000D+00 3.960000000000D+04
    1.806904296875D+03-1.548573493958D+00 9.313225746155D-10 0.000000000000D+00
    1.474557226562D+04 2.388247489929D+00-9.313225746155D-10 5.000000000000D+00
   -2.070097607422D+04 1.557216644287D+00 2.793967723846D-09 0.000000000000D+00
13 22  4  3 11 15  0.0-2.034474164248D-05-0.000000000000D+00 3.960000000000D+04
    1.246305175781D+03-8.853960037231D-01 9.313225746155D-10 0.000000000000D+00
    1.976035156250D+04-2.017415046692D+00-9.313225746155D-10-2.000000000000D+00
   -1.610384033203D+04-2.546755790710D+00 1.862645149231D-09 0.000000000000D+00
24 22  4  3 11 15  0.0 8.734967559576D-05 1.818989403546D-12 4.011000000000D+04
   -6.155820800781D+03-3.086300849915D+00 9.313225746155D-10 0.000000000000D+00
    1.005172802734D+04-2.527580261230D-01-0.000000000000D+00 2.000000000000D+00
    2.263573632812D+04-7.280492782593D-01-1.862645149231D-09 0.000000000000D+00
14 22  4  3 11 45  0.0 7.610116153955D-05 0.000000000000D+00 4.140000000000D+04
    1.176956738281D+04-2.684288024902D-01 3.725290298462D-09 0.000000000000D+00
    2.206277246094D+04-6.441164016724D-01-0.000000000000D+00-7.000000000000D+00
   -4.995490234375D+03-3.473818778992D+00 1.862645149231D-09 0.000000000000D+00
 1 22  4  3 11 45  0.0 7.536262273788D-06 0.000000000000D+00 4.140000000000D+04
   -1.480812158203D+04 1.081512451172D+00-0.000000000000D+00 0.000000000000D+00
    1.223936132812D+04-2.027853012085D+00-1.862645149231D-09 1.000000000000D+00
    1.677964843750D+04 2.435861587524D+00-1.862645149231D-09 0.000000000000D+00
 2 22  4  3 11 45  0.0 5.144504830241D-04 9.094947017729D-13 4.140000000000D+04
   -1.107541601562D+04 6.263542175293D-02 0.000000000000D+00 0.000000000000D+00
    2.296349609375D+04 2.688741683960D-01-2.793967723846D-09-4.000000000000D+00
   -1.487041015625D+03 3.564012527466D+00 0.000000000000D+00 0.000000000000D+00
 3 22  4  3 11 45  0.0 5.425233393908D-05 0.000000000000D+00 4.140000000000D+04
   -4.585878906250D+02-9.663181304932D-01 0.000000000000D+00 0.000000000000D+00
    1.887377148438D+04 2.149991989136D+00-1.862645149231D-09 5.000000000000D+00
   -1.713187402344D+04 2.382431030273D+00 1.862645149231D-09 0.000000000000D+00
13 22  4  3 11 45  0.0-2.034474164248D-05-0.000000000000D+00 4.140000000000D+04
   -8.714965820312D+02-1.468567848206D+00-0.000000000000D+00 0.000000000000D+00
    1.582506787109D+04-2.307405471802D+00-1.862645149231D-09-2.000000000000D+00
   -2.000740917969D+04-1.762483596802D+00 1.862645149231D-09 0.000000000000D+00
15 22  4  3 11 45  0.0 9.710527956486D-05-0.000000000000D+00 4.161000000000D+04
    1.677433593750D+04 1.021791458130D+00 5.587935447693D-09 0.000000000000D+00
    1.488116064453D+04 1.319691658020D+00 9.313225746155D-10 0.000000000000D+00
    1.217377246094D+04-3.024520874023D+00 0.000000000000D+00 0.000000000000D+00
24 22  4  3 11 45  0.0 8.735246956348D-05 1.818989403546D-12 4.170000000000D+04
   -1.149338427734D+04-2.794882774353D+00 0.000000000000D+00 0.000000000000D+00
    1.000751416016D+04 1.910667419434D-01-9.313225746155D-10 2.000000000000D+00
    2.046847119141D+04-1.664458274841D+00-1.862645149231D-09 0.000000000000D+00
24 22  4  3 12 15  0.0 8.735619485378D-05 1.818989403546D-12 4.320000000000D+04
   -1.605452099609D+04-2.233380317688D+00-9.313225746155D-10 0.000000000000D+00
    1.066451318359D+04 5.105676651001D-01-1.862645149231D-09 2.000000000000D+00
    1.672080175781D+04-2.472670555115D+00-1.862645149231D-09 0.000000000000D+00
15 22  4  3 12 15  0.0 9.710527956486D-05-0.000000000000D+00 4.320000000000D+04
    1.833984082031D+04 6.754064559937D-01 4.656612873077D-09 0.000000000000D+00
    1.656661865234D+04 5.587224960327D-01-0.000000000000D+00 0.000000000000D+00
    6.329597656250D+03-3.426894187927D+00 9.313225746155D-10 0.000000000000D+00
 1 22  4  3 12 15  0.0 7.537193596363D-06 0.000000000000D+00 4.320000000000D+04
   -1.296313085938D+04 9.311676025391D-01-0.000000000000D+00 0.000000000000D+00
    8.010310058594D+03-2.640697479248D+00-9.313225746155D-10 1.000000000000D+00
    2.045894970703D+04 1.625766754150D+00-2.793967723846D-09 0.000000000000D+00
 2 22  4  3 12 15  0.0 5.144542083144D-04 1.818989403546D-12 4.320000000000D+04
   -1.063231494141D+04 3.905382156372D-01-0.000000000000D+00 0.000000000000D+00
    2.270891455078D+04-5.644874572754D-01-1.862645149231D-09-4.000000000000D+00
    4.902901367188D+03 3.490022659302D+00-9.313225746155D-10 0.000000000000D+00
 3 22  4  3 12 15  0.0 5.425326526165D-05 0.000000000000D+00 4.320000000000D+04
   -1.696609863281D+03-4.249544143677D-01 0.000000000000D+00 0.000000000000D+00
    2.231804345703D+04 1.634078979492D+00-1.862645149231D-09 5.000000000000D+00
   -1.223591552734D+04 3.021994590759D+00 9.313225746155D-10 0.000000000000D+00
13 22  4  3 12 15  0.0-2.034567296505D-05-0.000000000000D+00 4.320000000000D+04
   -4.010382324219D+03-2.001619338989D+00-9.313225746155D-10 0.000000000000D+00
    1.162688037109D+04-2.310295104980D+00-1.862645149231D-09-2.000000000000D+00
   -2.236713623047D+04-8.424825668335D-01 1.862645149231D-09 0.000000000000D+00
14 22  4  3 12 15  0.0 7.610209286213D-05 0.000000000000D+00 4.320000000000D+04
    1.073578417969D+04-8.992891311646D-01 1.862645149231D-09 0.000000000000D+00
    2.035951171875D+04-1.211121559143D+00-9.313225746155D-10-7.000000000000D+00
   -1.097413818359D+04-3.125935554504D+00 1.862645149231D-09 0.000000000000D+00
 4 22  4  3 12 15  0.0 1.349160447717D-04 1.818989403546D-12 4.488000000000D+04
    7.770842773438D+03-9.908752441406D-01 0.000000000000D+00 0.000000000000D+00
    9.387644042969D+03 2.910102844238D+00-9.313225746155D-10 6.000000000000D+00
   -2.237618750000D+04 8.746652603149D-01 2.793967723846D-09 0.000000000000D+00
24 22  4  3 12 45  0.0 8.735898882151D-05 1.818989403546D-12 4.500000000000D+04
   -1.941725878906D+04-1.479012489319D+00-2.793967723846D-09 0.000000000000D+00
    1.172190283203D+04 6.252193450928D-01-9.313225746155D-10 2.000000000000D+00
    1.168155224609D+04-3.090215682983D+00-1.862645149231D-09 0.000000000000D+00
 4 22  4  3 12 45  0.0 1.349188387394D-04 1.818989403546D-12 4.500000000000D+04
    6.443735351562D+03-4.854259490967D-01 0.000000000000D+00 0.000000000000D+00
    1.448200830078D+04 2.699410438538D+00-9.313225746155D-10 6.000000000000D+00
   -1.995454101562D+04 1.798460960388D+00 1.862645149231D-09 0.000000000000D+00
 2 22  4  3 12 45  0.0 5.144579336047D-04 1.818989403546D-12 4.500000000000D+04
   -9.818346191406D+03 4.718465805054D-01-0.000000000000D+00 0.000000000000D+00
    2.091992382812D+04-1.416698455811D+00-1.862645149231D-09-4.000000000000D+00
    1.091561230469D+04 3.147670745850D+00-9.313225746155D-10 0.000000000000D+00
 3 22  4  3 12 45  0.0 5.425419658422D-05 0.000000000000D+00 4.500000000000D+04
   -2.072920898438D+03-2.346611022949D-02-0.000000000000D+00 0.000000000000D+00
    2.462255957031D+04 8.962135314941D-01-2.793967723846D-09 5.000000000000D+00
   -6.393773925781D+03 3.427045822144D+00 0.000000000000D+00 0.000000000000D+00
14 22  4  3 12 45  0.0 7.610209286213D-05 0.000000000000D+00 4.500000000000D+04
    8.494427734375D+03-1.592471122742D+00 9.313225746155D-10 0.000000000000D+00
    1.785260400391D+04-1.529782295227D+00-1.862645149231D-09-7.000000000000D+00
   -1.610330615234D+04-2.536099433899D+00 1.862645149231D-09 0.000000000000D+00
15 22  4  3 12 45  0.0 9.710434824228D-05-0.000000000000D+00 4.500000000000D+04
    1.906658886719D+04 9.839725494385D-02 4.656612873077D-09 0.000000000000D+00
    1.694557373047D+04-1.145200729370D-01-9.313225746155D-10 0.000000000000D+00
   -3.777832031250D+00-3.564508438110D+00 9.313225746155D-10 0.000000000000D+00
17 22  4  3 12 45  0.0 5.145976319909D-04 2.728484105319D-12 4.590000000000D+04
   -3.221933593750D+03-2.907168388367D+00 9.313225746155D-10 0.000000000000D+00
    1.172405517578D+04 9.976520538330D-01-9.313225746155D-10 4.000000000000D+00
    2.242562646484D+04-9.422149658203D-01-1.862645149231D-09 0.000000000000D+00
24 22  4  3 13 15  0.0 8.736271411180D-05 1.818989403546D-12 4.680000000000D+04
   -2.132626513672D+04-6.371908187866D-01-3.725290298462D-09 0.000000000000D+00
    1.276507812500D+04 4.910068511963D-01-9.313225746155D-10 2.000000000000D+00
    5.739537597656D+03-3.469192504883D+00-9.313225746155D-10 0.000000000000D+00
 4 22  4  3 13 15  0.0 1.349216327071D-04 1.818989403546D-12 4.680000000000D+04
    5.984570312500D+03-4.406642913818D-02-0.000000000000D+00 0.000000000000D+00
    1.893129833984D+04 2.199862480164D+00-1.862645149231D-09 6.000000000000D+00
   -1.598587841797D+04 2.582378387451D+00 1.862645149231D-09 0.000000000000D+00
 2 22  4  3 13 15  0.0 5.144607275724D-04 1.818989403546D-12 4.680000000000D+04
   -9.079164062500D+03 3.121271133423D-01-9.313225746155D-10 0.000000000000D+00
    1.766687792969D+04-2.172558784485D+00-9.313225746155D-10-4.000000000000D+00
    1.608916503906D+04 2.563678741455D+00-1.862645149231D-09 0.000000000000D+00
 3 22  4  3 13 15  0.0 5.425605922937D-05 9.094947017729D-13 4.680000000000D+04
   -1.908375976562D+03 1.672267913818D-01-0.000000000000D+00 0.000000000000D+00
    2.546556835938D+04 2.765178680420D-02-1.862645149231D-09 5.000000000000D+00
   -5.795410156250D+01 3.567116737366D+00-0.000000000000D+00 0.000000000000D+00
14 22  4  3 13 15  0.0 7.610302418470D-05 0.000000000000D+00 4.680000000000D+04
    5.031855957031D+03-2.237486839294D+00-9.313225746155D-10 0.000000000000D+00
    1.501499121094D+04-1.578819274902D+00-9.313225746155D-10-7.000000000000D+00
   -1.998606445312D+04-1.750056266785D+00 1.862645149231D-09 0.000000000000D+00
